#aV2015  1  3  0  0  0.00000000      96   BCE WGS84      ARL
## 1825 518400.00000000   900.00000000 57025 0.0000000000000
+   31     1  2  3  4  5  6  7  9 10 11 12 13 14 15 16 17 18
+         19 20 21 22 23 24 25 26 27 28 29 30 31 32  0  0  0
+          0  0  0  0  0  0  0  0  0  0  0  0  0  0  0  0  0
+          0  0  0  0  0  0  0  0  0  0  0  0  0  0  0  0  0
+          0  0  0  0  0  0  0  0  0  0  0  0  0  0  0  0  0
++         0  0  0  0  0  0  0  0  0  0  0  0  0  0  0  0  0
++         0  0  0  0  0  0  0  0  0  0  0  0  0  0  0  0  0
++         0  0  0  0  0  0  0  0  0  0  0  0  0  0  0  0  0
++         0  0  0  0  0  0  0  0  0  0  0  0  0  0  0  0  0
++         0  0  0  0  0  0  0  0  0  0  0  0  0  0  0  0  0
%c cc cc ccc ccc cccc cccc cccc cccc ccccc ccccc ccccc ccccc
%c cc cc ccc ccc cccc cccc cccc cccc ccccc ccccc ccccc ccccc
%f  0.0000000  0.000000000  0.00000000000  0.000000000000000
%f  0.0000000  0.000000000  0.00000000000  0.000000000000000
%i    0    0    0    0      0      0      0      0         0
%i    0    0    0    0      0      0      0      0         0
/* CCCCCCCCCCCCCCCCCCCCCCCCCCCCCCCCCCCCCCCCCCCCCCCCCCCCCCCCC
/* CCCCCCCCCCCCCCCCCCCCCCCCCCCCCCCCCCCCCCCCCCCCCCCCCCCCCCCCC
/* CCCCCCCCCCCCCCCCCCCCCCCCCCCCCCCCCCCCCCCCCCCCCCCCCCCCCCCCC
/* CCCCCCCCCCCCCCCCCCCCCCCCCCCCCCCCCCCCCCCCCCCCCCCCCCCCCCCCC
*  2015  1  3 22 30  0.00000000
P  1 -19231.370636  -7547.402363  16733.042068    -10.532761
V  1 -10543.428219 -18561.468991 -20264.514043      0.003411
P  2  13555.133641  22921.594580   3528.077935    539.745499
V  2  -4784.564069  -1497.799028  30570.597435      0.022737
P  3 -16831.868968   1938.200338  20470.513640    123.976499
V  3  10306.640187 -23864.051036  10690.015391      0.266027
P  4 -19080.475763 -16623.941334   8180.636701     -5.142953
V  4  -3697.520313 -10575.805041 -28742.286482     -0.005684
P  5   6703.633313  17546.437785 -18764.580035   -297.597613
V  5 -11665.453196  20841.559809  15540.474352      0.050022
P  6   2411.376746  21822.446982  14947.519035     42.190430
V  6 -12467.908293 -14469.685354  23100.884979      0.095497
P  7 -14379.745782   5050.529866 -21686.304573    428.311270
V  7 -14979.993950 -23297.973098   4142.126084      0.034106
P  9 -23924.239892   7900.623795  -8427.749738    -44.889000
V  9 -10875.324863  -1766.584201  29225.823813     -0.105729
P 10  -7787.626514  24670.239111  -5279.338519   -157.208752
V 10  -6068.648722   4084.509160  30615.296450     -0.017053
P 11 -23448.581427  -9831.388787   7412.447363   -548.310280
V 11  -5467.610882  -9720.857113 -28057.537857     -0.027285
P 12  15134.240101   1869.384434  21639.022839    258.614180
V 12 -12519.920666  24622.132991   6813.330712      0.029559
P 13  12740.758800  13391.726913 -19193.712659    -75.498339
V 13 -24048.570637    455.504351 -15931.871333     -0.034106
P 14   8920.318964 -14287.744040  20732.707139    100.181843
V 14  25819.803113    824.287577 -10801.212547     -0.035243
P 15  24958.445533   3574.819425  -8919.646277   -224.224121
V 15 -10712.337439   4380.193599 -28157.162793     -0.022737
P 16  -4937.363013 -17364.962025 -19402.572167   -167.908424
V 16  12902.653917 -20939.541921  15857.593644      0.030695
P 17 -10690.921789  14072.014371  20039.408250   -147.909221
V 17 -24888.949348   -233.729221 -13521.799859     -0.022737
P 18  15668.410206 -19408.764587  -8188.968673    369.758661
V 18  -1016.845593  11831.562885 -28678.423424      0.026148
P 19 -21758.962672  -9138.038692 -12797.123866   -495.195642
V 19  15814.346182  -1483.866597 -25739.165810     -0.015916
P 20 -17576.346664  11211.667998  16256.847038    274.693230
V 20   5333.768678 -20572.830542  19824.535525      0.042064
P 21  10849.018459 -11284.727442 -20757.792039   -404.070892
V 21  16739.909561  22544.864311  -3800.129697     -0.022737
P 22   8577.687985 -24837.685424   3393.360141    303.631730
V 22   5435.150741  -2015.588146 -30590.461521      0.038654
P 23 -26732.139594    593.568056   1862.818763    -79.166777
V 23   1978.237642  -2931.736743  31118.108816     -0.027285
P 24  19822.687892  10307.550744  14441.164414    -41.173347
V 24   8839.238892  16208.546045 -23535.801399     -0.006821
P 25  17497.358650 -12119.375678  15713.902336      5.480073
V 25  -7084.197290  18910.184343  22505.296578     -0.022737
P 26  15078.914922  12889.029269 -18461.066851   -180.050615
V 26 -21984.813865    569.271688 -17956.768374     -0.133014
P 27 -12573.666229 -12645.893487 -19720.763794     41.783998
V 27  24803.704803  -3128.876193 -13733.287370      0.027285
P 28 -12911.923831  23135.207921    154.553782    409.941505
V 28  -1512.328167  -1499.567673 -32421.836801      0.026148
P 29  25427.306050  -4700.773577  -5944.654937    583.702845
V 29   7644.914666   2213.972075  30829.776996      0.023874
P 30  -7007.184932  15974.730340 -20014.725465    -86.260832
V 30 -13789.228731 -21410.205301 -12306.073408     -0.004547
P 31  -3842.084587 -22588.674904  13285.892458    326.176132
V 31  10752.746685  12976.475786  25776.809533     -0.006821
P 32 -10399.488620 -12387.748609  21140.289403   -255.717056
V 32  13859.352537 -22960.128989  -6093.052104      0.086402
*  2015  1  3 22 45  0.00000000
P  1 -20159.254574  -9104.492454  14770.953934    -10.532454
V  1  -9999.230506 -16015.704588 -23274.345817      0.003411
P  2  13028.266089  22678.262459   6242.490883    539.747545
V  2  -6961.942582  -3854.274866  29666.489670      0.022737
P  3 -15941.633435   -276.667404  21253.967476    124.000441
V  3   9424.204833 -25282.985115   6694.871489      0.266027
P  4 -19347.063925 -17448.199753   5531.191696     -5.143465
V  4  -2161.197317  -7757.381974 -30049.280105     -0.005684
P  5   5733.417664  19369.978414 -17208.244526   -297.593111
V  5  -9899.144385  19598.182117  18995.904755      0.050022
P  6   1188.035237  20460.104976  16892.011970     42.199024
V  6 -14715.609205 -15722.860773  20047.908211      0.095497
P  7 -15766.424666   3015.566236 -21127.065772    428.314340
V  7 -15771.623074 -21856.700834   8265.362627      0.034106
P  9 -24756.668338   7748.811502  -5732.500407    -44.898515
V  9  -7601.118181  -1675.084558  30582.632681     -0.105729
P 10  -8262.613744  24906.226150  -2485.706674   -157.210287
V 10  -4538.578663   1116.203060  31375.029809     -0.017053
P 11 -23840.123638 -10612.432343   4830.350131   -548.312735
V 11  -3183.596640  -7668.832175 -29238.304147     -0.027285
P 12  14058.749898   4140.012522  22062.524933    258.616840
V 12 -11328.226913  25755.314140   2585.333398      0.029559
P 13  10505.161267  13492.495354 -20460.090299    -75.501409
V 13 -25548.101216   1815.114229 -12171.152757     -0.034106
P 14  11185.108358 -14273.355372  19587.872896    100.178671
V 14  24426.675483   -473.387935 -14604.988744     -0.035243
P 15  23867.402300   4014.565680 -11371.472935   -224.226167
V 15 -13484.666567   5442.348437 -26251.076845     -0.022737
P 16  -3868.126364 -19204.328331 -17811.322411   -167.905662
V 16  10856.684903 -19844.220119  19454.084985      0.030695
P 17 -12857.680496  14105.947325  18656.337127   -147.911267
V 17 -23183.399689    948.216078 -17171.667447     -0.022737
P 18  15546.773259 -18207.506128 -10689.279157    369.761014
V 18  -1619.081940  14848.451121 -26800.005507      0.026148
P 19 -20214.568992  -9313.457590 -15000.550008   -495.197074
V 19  18448.966449  -2467.792034 -23157.434096     -0.015916
P 20 -17107.592251   9259.395531  17893.984287    274.697016
V 20   5024.101547 -22756.791998  16502.925443      0.042064
P 21  12407.909377  -9282.378863 -20908.539389   -404.072938
V 21  17848.083181  21874.392220    453.182185     -0.022737
P 22   9003.698539 -24885.825190    618.745572    303.635209
V 22   4086.221463    978.658898 -30978.450208      0.038654
P 23 -26406.338619    308.414163   4640.036918    -79.169233
V 23   5241.633146  -3469.862753  30511.722058     -0.027285
P 24  20579.852879  11646.570307  12205.363988    -41.173961
V 24   7910.679050  13536.224318 -26077.298179     -0.006821
P 25  16863.234410 -10300.017068  17596.713020      5.478027
V 25  -6935.750920  21472.395557  19274.321095     -0.022737
P 26  13020.344466  12996.822890 -19923.357867   -180.062586
V 26 -23686.580447   1861.883764 -14495.971863     -0.133014
P 27 -10286.661806 -12994.419252 -20784.053034     41.786454
V 27  25931.362769  -4632.286337  -9861.157453      0.027285
P 28 -12978.430299  22854.999901  -2756.285114    409.943858
V 28    -32.108179  -4758.586030 -32169.157667      0.026148
P 29  25961.673235  -4509.879742  -3126.648801    583.704993
V 29   4214.768887   2098.574788  31702.299707      0.023874
P 30  -8327.286564  14033.560057 -20946.706856    -86.261241
V 30 -15519.891799 -21642.305598  -8375.095102     -0.004547
P 31  -2771.395309 -21344.025928  15483.940484    326.175518
V 31  13049.676032  14599.776179  22999.531967     -0.006821
P 32  -9223.737428 -14449.333007  20413.035632   -255.709279
V 32  12243.451911 -22770.513329 -10042.311308      0.086402
EOF
